{"type":"Feature","properties":{"name":"India (official boundary)"},"geometry":{"type":"MultiLineString","coordinates":[[[88.12608,21.67461],[88.03235,21.68674],[88.10265,21.84133],[88.16709,21.82315],[88.17001,21.73827],[88.12608,21.67461]],[[89.01649,21.77768],[89.09265,21.65339],[89.037,21.61095],[89.01649,21.77768]],[[88.77632,21.86862],[88.80854,21.66855],[88.74703,21.66248],[88.69138,21.75039],[88.71481,21.90499],[88.77632,21.86862]],[[88.94327,21.91409],[88.94913,21.76858],[88.82025,21.92621],[88.88176,21.91409],[88.94327,21.91409]],[[72.35638,21.7989],[72.30952,21.84133],[72.29194,21.96562],[72.37395,22.02928],[72.43839,21.92621],[72.35638,21.7989]],[[73.05348,8.27296],[73.04176,8.26387],[73.01833,8.27599],[73.05348,8.27296]],[[92.86519,12.23495],[92.8564,12.15917],[92.76853,12.18342],[92.73924,12.24707],[92.80954,12.31376],[92.83297,12.30164],[92.87105,12.30164],[92.86519,12.23495]],[[92.87398,12.33195],[92.83004,12.30164],[92.80954,12.3168],[92.77732,12.31376],[92.71874,12.29861],[92.69824,12.32892],[92.71288,12.54415],[92.7451,12.723],[92.73046,12.83516],[92.7949,12.86244],[92.78904,13.02007],[92.82126,13.11101],[92.84176,13.3899],[92.87105,13.47175],[92.93256,13.49903],[92.98821,13.57481],[93.04386,13.52934],[93.03214,13.34443],[93.06436,13.27168],[93.03214,13.1777],[93.03507,13.0807],[92.95892,13.01704],[92.91206,13.05342],[92.85933,12.90185],[92.92377,12.88366],[92.96771,12.74119],[92.95599,12.62296],[92.97356,12.54415],[92.87398,12.33195]],[[92.51957,10.89812],[92.58694,10.78899],[92.59572,10.68289],[92.53129,10.52223],[92.4317,10.55254],[92.38484,10.67077],[92.37898,10.78293],[92.51957,10.89812]],[[92.63966,11.51045],[92.68945,11.37404],[92.59865,11.34676],[92.58694,11.40133],[92.63966,11.51045]],[[92.75682,12.17735],[92.75682,12.17432],[92.73339,12.08338],[92.78025,12.04701],[92.70703,11.97425],[92.79197,11.88634],[92.75389,11.70143],[92.66016,11.65293],[92.75096,11.61049],[92.66602,11.50439],[92.55179,11.71962],[92.53421,11.91059],[92.60158,11.84997],[92.62208,12.10157],[92.66016,12.21373],[92.75682,12.17735]],[[93.83762,7.23927],[93.86984,7.20592],[93.91377,6.94825],[93.87862,6.79366],[93.79954,6.76637],[93.71753,6.99069],[93.66774,7.02404],[93.6443,7.12711],[93.67359,7.19076],[93.83762,7.23927]],[[93.69995,7.4454],[93.74389,7.37568],[93.71167,7.31202],[93.63552,7.24533],[93.60916,7.31202],[93.69995,7.4454]],[[92.79197,9.23693],[92.82711,9.13993],[92.72753,9.1278],[92.72167,9.21874],[92.79197,9.23693]],[[73.59827,33.71215],[73.5602,33.77581],[73.58949,33.8819],[73.52212,33.98497],[73.48697,34.14563],[73.49283,34.22142],[73.39031,34.37298],[73.44597,34.57305],[73.61878,34.58518],[73.75058,34.78525],[73.9644,34.84284],[74.07277,34.93985],[74.06691,35.04898],[74.14599,35.09748],[73.79452,35.24298],[73.73008,35.2157],[73.70079,35.35818],[73.79452,35.46124],[73.78573,35.5249],[73.63342,35.57037],[73.40789,35.56431],[73.13549,35.71891],[73.15307,35.84016],[73.08863,35.8826],[72.92753,35.84623],[72.90117,35.87957],[72.69028,35.8341],[72.53505,35.91595],[72.59363,36.02811],[72.52919,36.07358],[72.59363,36.26152],[72.77815,36.31002],[72.8836,36.38581],[72.88067,36.4434],[72.99197,36.45553],[73.11206,36.61013],[73.1267,36.68591],[73.31416,36.70713],[73.44011,36.74351],[73.70079,36.68288],[73.80623,36.71623],[73.86188,36.78595],[73.72422,36.83445],[73.68907,36.91326],[73.87653,36.89508],[74.0552,36.80717],[74.14307,36.84051],[74.16943,36.90114],[74.26023,36.88598],[74.42718,36.98905],[74.52969,36.98602],[74.58534,37.04361],[74.70836,37.07696],[74.73472,37.01936],[74.84017,37.02239],[74.92218,36.90417],[75.01591,36.97389],[75.09499,36.94358],[75.20922,37.03452],[75.34395,37.05271],[75.34981,36.97995],[75.42304,36.95873],[75.47283,36.8102],[75.61635,36.7617],[75.74815,36.58891],[75.92096,36.501],[76.0762,36.47372],[76.25487,36.3464],[76.35153,36.35853],[76.43061,36.30699],[76.4804,36.20999],[76.60049,36.16452],[76.6415,36.18271],[76.71765,36.08267],[76.79966,36.0463],[76.72351,35.95232],[76.81138,35.84319],[76.9344,35.78257],[77.11599,35.79772],[77.16579,35.73406],[77.4294,35.65525],[77.46454,35.5734],[77.43525,35.51581],[77.61099,35.4673],[77.7223,35.4764],[77.81602,35.51278],[77.90096,35.4673],[77.9654,35.57037],[78.04156,35.58553],[78.13528,35.54006],[78.19679,35.67041],[78.27002,35.72194],[78.38425,35.73406],[78.42232,35.7856],[78.51898,35.76135],[78.66543,35.85835],[78.82067,35.85532],[78.95833,35.8917],[79.01984,35.84926],[79.13114,35.8341],[79.19265,35.88563],[79.21608,35.97961],[79.37718,35.99476],[79.42111,35.89473],[79.86925,35.78257],[79.99812,35.83713],[80.1065,35.6795],[80.29102,35.60675],[80.32617,35.47034],[80.22366,35.21873],[80.17972,35.1672],[80.17386,35.00351],[80.07135,34.82769],[80.06842,34.7125],[79.94247,34.68218],[79.85753,34.68825],[79.77552,34.62762],[79.79309,34.48514],[79.59099,34.5003],[79.50605,34.47605],[79.59099,34.28204],[79.50605,34.20626],[79.49434,34.13351],[79.35374,34.0365],[79.19558,34.05166],[79.13407,34.02741],[79.01984,34.05166],[78.90561,33.97588],[78.99934,33.80309],[79.0462,33.76368],[79.10478,33.61817],[78.98762,33.61211],[78.9144,33.5727],[78.93197,33.43326],[78.98762,33.33323],[79.11064,33.29079],[79.23951,33.29685],[79.45333,33.25744],[79.37425,33.08465],[79.42111,32.96037],[79.56756,32.78758],[79.62614,32.73908],[79.44747,32.53295],[79.3186,32.59357],[79.19265,32.48141],[79.13407,32.47838],[79.11357,32.38441],[79.03156,32.38744],[78.98176,32.33894],[78.85582,32.43897],[78.77673,32.5572],[78.75916,32.6542],[78.6625,32.6542],[78.45747,32.58145],[78.39889,32.52385],[78.45454,32.4511],[78.53363,32.41472],[78.4809,32.34803],[78.4809,32.27831],[78.60978,32.21465],[78.59221,32.15403],[78.67422,32.07824],[78.78259,31.99336],[78.70644,31.77511],[78.76502,31.67507],[78.84703,31.60838],[78.73573,31.53563],[78.79724,31.44469],[78.75037,31.36587],[78.79138,31.30525],[78.88218,31.28403],[78.94369,31.36587],[79.00812,31.378],[79.07256,31.45681],[79.137,31.43256],[79.16629,31.35981],[79.23366,31.33253],[79.22194,31.25978],[79.29516,31.21734],[79.3186,31.13549],[79.40647,31.07486],[79.50605,31.03242],[79.60271,30.93239],[79.73158,30.97786],[79.86339,30.9718],[79.88975,30.91723],[80.05377,30.84448],[80.10064,30.78991],[80.17386,30.8081],[80.25002,30.74444],[80.21194,30.58378],[80.41697,30.52619],[80.53999,30.44737],[80.60735,30.47162],[80.70987,30.41706],[80.8036,30.32308],[80.99984,30.26852],[81.04377,30.21092],[80.92954,30.17455],[80.76259,30.05026],[80.67472,29.95629],[80.6015,29.95629],[80.55463,29.85019],[80.43454,29.80472],[80.36718,29.74106],[80.40818,29.59556],[80.34082,29.51068],[80.24123,29.44399],[80.31738,29.30152],[80.2588,29.18632],[80.14457,29.10145],[80.11821,28.98019],[80.07428,28.94078],[80.06549,28.83772],[80.12114,28.82559],[80.27638,28.7104],[80.31445,28.62855],[80.4609,28.62552],[80.5517,28.69221],[80.66886,28.64371],[80.71573,28.56793],[81.05256,28.40423],[81.21366,28.35876],[81.23416,28.28904],[81.3191,28.1981],[81.42454,28.17082],[81.47726,28.08291],[81.7438,27.95256],[81.8844,27.85556],[81.96055,27.92528],[82.06892,27.92528],[82.12164,27.86465],[82.20658,27.84343],[82.44969,27.67974],[82.66351,27.72218],[82.70451,27.70399],[82.75431,27.58576],[82.73087,27.48573],[82.93005,27.50089],[83.03549,27.44935],[83.1878,27.45238],[83.29031,27.33416],[83.34303,27.33416],[83.4104,27.41298],[83.39576,27.47967],[83.61543,27.46754],[83.83218,27.37054],[83.86147,27.33416],[83.83218,27.42813],[84.0167,27.43723],[84.09871,27.51604],[84.25688,27.45238],[84.28031,27.39479],[84.62007,27.34022],[84.69037,27.222],[84.64058,27.04921],[84.75774,27.00374],[84.8251,27.02193],[84.96277,26.9613],[85.03013,26.87339],[85.19123,26.87036],[85.17951,26.79761],[85.25567,26.75517],[85.33475,26.74305],[85.54271,26.83702],[85.64229,26.85218],[85.73016,26.80974],[85.72431,26.67332],[85.8151,26.60057],[85.85904,26.56723],[85.95862,26.65211],[86.02892,26.66726],[86.19002,26.61573],[86.33939,26.60663],[86.54149,26.53691],[86.57078,26.49751],[86.72309,26.42475],[86.84611,26.44294],[87.04235,26.56116],[87.09215,26.449],[87.16244,26.40353],[87.36747,26.40657],[87.46413,26.43991],[87.58715,26.38231],[87.65744,26.37928],[87.84783,26.43688],[88.03235,26.39141],[88.09972,26.45507],[88.11143,26.54904],[88.16123,26.63695],[88.18759,26.77033],[88.12022,26.94918],[87.99135,27.10984],[88.03821,27.21897],[88.04407,27.47967],[88.11436,27.61911],[88.19638,27.78887],[88.20516,27.94043],[88.46877,28.01622],[88.49513,28.05563],[88.61815,28.09806],[88.75581,28.07685],[88.84368,27.99197],[88.8349,27.92831],[88.88762,27.85556],[88.8554,27.81615],[88.84954,27.66761],[88.7646,27.56455],[88.79389,27.41601],[88.91984,27.319],[88.90226,27.27353],[88.80268,27.24625],[88.79096,27.18563],[88.72067,27.14015],[88.86419,27.10984],[88.86712,26.96434],[88.91984,26.99465],[89.08972,26.88855],[89.08972,26.84005],[89.1278,26.8067],[89.25667,26.8067],[89.37383,26.85521],[89.45291,26.79761],[89.54664,26.81277],[89.63744,26.75214],[89.76339,26.69758],[89.85126,26.69758],[89.86004,26.73395],[90.05043,26.73092],[90.19395,26.77336],[90.23203,26.85824],[90.33747,26.86127],[90.41655,26.90371],[90.54543,26.8158],[90.71824,26.77033],[90.95256,26.77639],[91.05507,26.78245],[91.09901,26.82186],[91.23667,26.81277],[91.33626,26.77942],[91.40948,26.84005],[91.49442,26.79155],[91.62623,26.82186],[91.70238,26.81277],[91.89277,26.91887],[91.98356,26.85824],[92.05679,26.84611],[92.11244,26.89158],[92.10365,27.00677],[92.03336,27.06437],[92.02457,27.16137],[92.07143,27.27657],[92.05386,27.40085],[92.01285,27.48876],[91.93963,27.46148],[91.65552,27.4827],[91.56472,27.58576],[91.55886,27.63427],[91.62623,27.70399],[91.62916,27.80099],[91.8254,27.81009],[91.88105,27.72218],[91.98649,27.77068],[92.05679,27.75855],[92.15637,27.83737],[92.25596,27.86162],[92.30868,27.77977],[92.46685,27.81615],[92.56058,27.82221],[92.66895,27.898],[92.73339,27.97681],[92.66309,28.06775],[92.68945,28.12535],[92.80075,28.20113],[92.89741,28.20416],[93.02336,28.3042],[93.22253,28.34057],[93.18152,28.43151],[93.27818,28.50427],[93.33969,28.64068],[93.492,28.68312],[93.6238,28.65584],[93.8464,28.70737],[93.96356,28.71343],[93.99871,28.84075],[94.15688,28.95594],[94.18617,29.03779],[94.29161,29.14692],[94.35898,29.15298],[94.4322,29.22573],[94.56108,29.22876],[94.57865,29.2803],[94.67824,29.3288],[94.79247,29.22573],[94.87448,29.18329],[95.25232,29.10751],[95.26989,29.04991],[95.45442,29.03476],[95.53936,29.21057],[95.58915,29.21664],[95.70339,29.29848],[95.88205,29.38942],[95.95821,29.38033],[96.09001,29.45915],[96.17788,29.36214],[96.24232,29.23179],[96.39463,29.25301],[96.34484,29.16814],[96.21889,29.13479],[96.15152,29.04991],[96.24818,28.94078],[96.34484,29.02869],[96.43563,29.03476],[96.51765,28.96807],[96.53815,28.88016],[96.60844,28.79528],[96.58501,28.71646],[96.47078,28.68312],[96.49421,28.63462],[96.32726,28.51033],[96.3712,28.48305],[96.31262,28.38301],[96.50886,28.41333],[96.57915,28.45577],[96.6641,28.4588],[96.78126,28.36482],[96.89549,28.37998],[96.99507,28.31026],[97.0888,28.36179],[97.17081,28.29207],[97.2206,28.29207],[97.36998,28.21932],[97.32898,28.15566],[97.32898,28.05866],[97.38756,28.00409],[97.37584,27.91012],[97.25282,27.90103],[97.15617,27.81312],[97.03022,27.74946],[96.90134,27.61305],[96.86034,27.63124],[96.93356,27.50998],[96.90134,27.45238],[96.96285,27.40085],[97.09173,27.21291],[97.16495,27.14015],[97.06244,27.09165],[96.98336,27.15531],[96.86034,27.18866],[96.88377,27.25838],[96.7959,27.34629],[96.60552,27.36448],[96.50886,27.29779],[96.30676,27.29475],[96.09001,27.222],[96.02265,27.17956],[95.94649,27.05225],[95.80297,27.01587],[95.74439,26.89461],[95.68288,26.90371],[95.60673,26.81277],[95.49543,26.8158],[95.42806,26.69758],[95.30211,26.65211],[95.23475,26.68242],[95.06194,26.449],[95.12345,26.34897],[95.11759,26.10646],[95.18495,26.07312],[95.12637,25.98824],[95.01507,25.89123],[95.04143,25.7427],[94.93599,25.66691],[94.88327,25.5881],[94.80711,25.49413],[94.67531,25.44562],[94.57572,25.21524],[94.65481,25.11521],[94.73682,25.11521],[94.74268,25.03639],[94.68702,24.89088],[94.63137,24.83935],[94.62845,24.7575],[94.5435,24.71203],[94.53472,24.64231],[94.37362,24.49378],[94.40584,24.43618],[94.29161,24.23308],[94.25353,24.11486],[94.23889,24.03604],[94.17152,23.92994],[94.15688,23.8481],[94.01629,23.92691],[93.89327,23.95419],[93.80833,23.92691],[93.74096,24.00573],[93.6238,24.01179],[93.50371,23.94207],[93.41584,24.07242],[93.37776,24.08757],[93.25182,24.02088],[93.39534,23.92691],[93.42756,23.65106],[93.42463,23.52677],[93.38948,23.49646],[93.4012,23.38733],[93.35726,23.32973],[93.39241,23.2206],[93.35433,23.0751],[93.29868,23.00538],[93.19617,23.05691],[93.12294,23.00538],[93.14637,22.92656],[93.09658,22.78712],[93.09365,22.7083],[93.14345,22.58402],[93.13173,22.47186],[93.18738,22.42336],[93.1991,22.27785],[93.16102,22.18085],[93.04972,22.20207],[92.99992,22.05353],[92.93842,22.01715],[92.8564,22.06262],[92.7041,22.15053],[92.68945,22.0414],[92.59865,22.01109],[92.60451,22.12325],[92.58108,22.32029],[92.51078,22.74165],[92.44927,22.87503],[92.37312,22.93566],[92.39069,23.05691],[92.34676,23.23879],[92.40241,23.26607],[92.36433,23.32367],[92.27353,23.64196],[92.26475,23.72684],[92.17688,23.70865],[92.1183,23.7329],[92.05972,23.64196],[91.9367,23.69047],[91.97478,23.4813],[91.94256,23.42674],[91.8664,23.44492],[91.8049,23.51465],[91.83711,23.37217],[91.75803,23.26607],[91.81661,23.14482],[91.8049,23.06297],[91.71995,22.98719],[91.57643,22.96597],[91.54422,22.99931],[91.50907,23.18423],[91.45342,23.26001],[91.31868,23.2782],[91.25424,23.48736],[91.16052,23.59346],[91.15466,23.742],[91.22788,23.7329],[91.24839,23.82991],[91.2191,23.87841],[91.30111,23.99663],[91.37433,24.0027],[91.47099,24.06332],[91.62916,24.10273],[91.65552,24.18458],[91.7551,24.14214],[91.74632,24.2452],[91.86055,24.18458],[91.92498,24.10879],[91.94256,24.26339],[91.92206,24.33918],[91.97185,24.38162],[92.07143,24.37555],[92.1388,24.42405],[92.15637,24.52409],[92.21495,24.50893],[92.25303,24.67869],[92.29404,24.73628],[92.23546,24.89998],[92.29697,24.91514],[92.38484,24.85148],[92.51664,24.87876],[92.42584,25.03033],[92.20031,25.1243],[92.08022,25.18493],[92.01578,25.18796],[91.74632,25.1728],[91.6438,25.1243],[91.60279,25.17583],[91.49149,25.13339],[91.38019,25.17583],[91.35383,25.23343],[91.25132,25.19705],[91.08143,25.20311],[90.97013,25.1728],[90.8559,25.16068],[90.77975,25.18493],[90.69188,25.16068],[90.51028,25.16977],[90.44584,25.14552],[90.33161,25.19099],[90.23496,25.20311],[90.11194,25.22433],[89.97427,25.30012],[89.83368,25.29709],[89.81611,25.38803],[89.87176,25.47594],[89.85126,25.46684],[89.88348,25.61841],[89.82783,25.7336],[89.84247,25.88214],[89.8864,25.9458],[89.72824,26.17012],[89.63451,26.22771],[89.60815,26.15193],[89.64916,26.06402],[89.54078,26.00643],[89.34747,26.00946],[89.23031,26.12465],[89.15416,26.13981],[89.09558,26.39141],[88.98427,26.44597],[88.91105,26.37928],[88.9872,26.34897],[88.9257,26.28228],[88.75874,26.32775],[88.70309,26.38838],[88.53028,26.47932],[88.41898,26.5642],[88.40141,26.64301],[88.33404,26.49751],[88.48342,26.46113],[88.51564,26.36413],[88.40141,26.33078],[88.35161,26.22165],[88.1788,26.1489],[88.09386,25.93064],[88.09972,25.83061],[88.14365,25.79423],[88.26667,25.7821],[88.45413,25.66388],[88.44534,25.59416],[88.64744,25.47897],[88.81146,25.52444],[88.84075,25.36378],[88.9872,25.27284],[88.91105,25.17886],[88.80561,25.16977],[88.73531,25.20008],[88.43655,25.20008],[88.4512,25.07883],[88.39555,24.9697],[88.27839,24.89088],[88.22567,24.96061],[88.14072,24.91514],[88.17294,24.86057],[88.0675,24.76963],[88.02649,24.69081],[88.13194,24.50893],[88.33404,24.44224],[88.3809,24.39677],[88.55957,24.30886],[88.68259,24.32402],[88.74117,24.2543],[88.74703,24.1482],[88.70016,24.09667],[88.7441,24.03604],[88.73238,23.91175],[88.60643,23.86022],[88.56543,23.71168],[88.59179,23.61771],[88.72359,23.51161],[88.76167,23.44492],[88.70895,23.23273],[88.81146,23.25395],[88.94327,23.20545],[88.85833,22.969],[88.96963,22.84472],[88.91398,22.75681],[88.96377,22.69315],[88.9257,22.65071],[88.99892,22.42942],[88.99599,22.28694],[89.06629,22.20813],[89.05457,22.12931],[89.06922,21.95046],[89.00771,21.90196],[88.93155,21.94137],[88.85247,21.92318],[88.76167,21.95349],[88.76167,22.01412],[88.6328,21.95349],[88.53321,21.85346],[88.44534,21.91712],[88.39262,21.8959],[88.3604,21.80496],[88.26667,21.72917],[88.30182,21.67158],[88.26081,21.55639],[88.21102,21.78374],[88.14658,21.95349],[88.20809,22.02625],[88.21981,22.10203],[88.18466,22.18691],[88.08214,22.26269],[87.9972,22.24451],[88.01478,22.20207],[88.13487,22.18691],[88.18759,22.10506],[88.06457,22.01715],[87.9562,21.83224],[87.78925,21.69886],[87.67501,21.65036],[87.48463,21.61398],[87.40848,21.54426],[87.22102,21.53517],[87.1478,21.50788],[86.94862,21.35935],[86.85783,21.21384],[86.85197,21.09259],[86.97791,20.85917],[86.96913,20.79248],[86.86661,20.78339],[86.8051,20.73489],[86.86075,20.7743],[87.02185,20.77126],[87.057,20.71367],[86.78753,20.53482],[86.73774,20.46206],[86.77581,20.33475],[86.67916,20.26503],[86.53271,20.18015],[86.36868,19.98311],[86.22809,19.90126],[85.8854,19.81335],[85.67744,19.74666],[85.35232,19.58903],[85.17365,19.46778],[85.07993,19.37684],[84.98034,19.31621],[84.81046,19.15555],[84.76652,19.07673],[84.70209,19.11917],[84.7636,19.0737],[84.6025,18.89182],[84.55271,18.78875],[84.49413,18.74025],[84.35354,18.55534],[84.14851,18.37346],[84.128,18.31283],[83.93469,18.20976],[83.66229,18.07941],[83.51877,17.94907],[83.41919,17.85509],[83.34596,17.72475],[83.16144,17.56105],[83.02084,17.50649],[82.99155,17.47314],[82.70158,17.34279],[82.54342,17.24882],[82.31789,17.05785],[82.24759,16.93659],[82.24759,16.87596],[82.36182,16.85474],[82.31789,16.66074],[82.31496,16.55767],[82.23295,16.54251],[81.95762,16.39701],[81.84925,16.37276],[81.71451,16.31213],[81.55342,16.34851],[81.39232,16.34244],[81.26638,16.27879],[81.21366,16.20906],[81.14629,15.97565],[81.01448,15.85136],[81.00863,15.75436],[80.93833,15.71495],[80.82996,15.70586],[80.77431,15.86652],[80.68058,15.88471],[80.53706,15.85136],[80.41697,15.79983],[80.31445,15.72405],[80.25002,15.63311],[80.20608,15.47548],[80.12407,15.36938],[80.03913,15.00865],[80.10943,14.73885],[80.19729,14.58729],[80.168,14.35084],[80.12993,14.22959],[80.14457,14.04164],[80.25587,13.78398],[80.23244,13.65666],[80.26759,13.56572],[80.32617,13.44446],[80.34374,13.27471],[80.29981,13.14133],[80.25002,12.85941],[80.25587,12.78059],[80.16508,12.52899],[80.13871,12.41077],[80.00691,12.25314],[79.88389,12.06519],[79.85753,12.05004],[79.85753,12.0076],[79.83996,11.95606],[79.80774,11.8439],[79.80774,11.83481],[79.79602,11.78631],[79.76087,11.62261],[79.76673,11.52258],[79.8136,11.42254],[79.85753,11.177],[79.85167,10.98603],[79.84874,10.8284],[79.87218,10.35854],[79.86046,10.28275],[79.76966,10.27063],[79.4709,10.3161],[79.38889,10.3161],[79.26587,10.22819],[79.2278,10.13725],[79.25123,10.04934],[79.12528,9.88261],[79.12235,9.87958],[79.11943,9.8523],[79.1165,9.84927],[78.98176,9.68861],[78.92904,9.59463],[78.89975,9.47035],[78.98469,9.35819],[79.06377,9.29756],[79.1575,9.28543],[79.33617,9.30969],[79.30395,9.24603],[79.20437,9.27937],[79.09014,9.26118],[78.98176,9.27331],[78.87339,9.25815],[78.57756,9.13084],[78.42525,9.11871],[78.38425,9.09446],[78.22901,8.9732],[78.17043,8.88226],[78.16164,8.80648],[78.19386,8.75192],[78.13821,8.67916],[78.14407,8.50031],[78.0562,8.37906],[77.97126,8.33359],[77.84238,8.25174],[77.79552,8.16383],[77.59049,8.13958],[77.55534,8.07592],[77.44404,8.09411],[77.23315,8.18202],[77.09842,8.29115],[76.95783,8.4215],[76.70008,8.73979],[76.6825,8.77617],[76.54777,8.90348],[76.4804,9.12174],[76.3486,9.38547],[76.31931,9.48247],[76.28123,9.78864],[76.167,10.18272],[76.21386,10.19484],[76.16114,10.18272],[76.10256,10.38279],[75.95611,10.68592],[75.90925,10.79202],[75.82724,11.12244],[75.69836,11.42558],[75.61928,11.47711],[75.55484,11.70143],[75.53727,11.70446],[75.53141,11.70446],[75.38496,11.85603],[75.35567,11.85906],[75.25023,12.0076],[75.20043,12.0076],[75.16528,12.08944],[75.04227,12.38955],[75.01591,12.41683],[74.86946,12.75938],[74.82259,12.84728],[74.77573,13.07161],[74.71715,13.31411],[74.67028,13.63544],[74.58241,13.92645],[74.51505,13.98708],[74.46818,14.19018],[74.44182,14.22352],[74.39496,14.41753],[74.35395,14.50847],[74.26901,14.62669],[74.26315,14.72067],[74.1167,14.78432],[74.08449,14.89952],[73.98197,15.05412],[73.88531,15.35422],[73.93511,15.43304],[73.76523,15.49366],[73.68614,15.72708],[73.58949,15.90896],[73.5104,15.93624],[73.41082,16.27272],[73.36981,16.36366],[73.34638,16.53039],[73.35224,16.61527],[73.30537,16.73046],[73.31709,16.80624],[73.27608,16.89112],[73.29659,16.98509],[73.2878,17.11544],[73.22336,17.26398],[73.24386,17.32157],[73.18236,17.38523],[73.1765,17.58227],[73.04469,17.98241],[72.97147,18.12489],[72.96854,18.24311],[73.03005,18.26433],[72.91582,18.35527],[72.89531,18.46137],[72.93339,18.54018],[72.85724,18.69781],[72.86895,18.80088],[72.83673,18.86454],[72.80159,18.90395],[72.83966,19.04945],[72.78694,19.12827],[72.78401,19.26468],[72.79866,19.30408],[72.71957,19.54053],[72.71665,19.64663],[72.65514,19.8376],[72.66392,19.93461],[72.73129,19.97098],[72.70786,20.07405],[72.77523,20.13165],[72.74008,20.24381],[72.77815,20.33778],[72.82795,20.36809],[72.83673,20.45297],[72.88653,20.46206],[72.9041,20.57726],[72.85431,20.75004],[72.7225,21.05015],[72.75179,21.06227],[72.61999,21.09865],[72.63756,21.21081],[72.59656,21.31691],[72.65514,21.34419],[72.69321,21.46241],[72.73422,21.47454],[72.70786,21.52607],[72.6112,21.58064],[72.69907,21.6443],[72.54384,21.73221],[72.62292,21.80799],[72.50869,21.9444],[72.56727,22.18085],[72.64928,22.21722],[72.75179,22.17175],[72.86602,22.21419],[72.94511,22.29301],[72.65807,22.27785],[72.51455,22.32029],[72.45889,22.25663],[72.37688,22.31423],[72.33881,22.17782],[72.24508,21.99593],[72.20407,21.89287],[72.24215,21.82315],[72.19528,21.75039],[72.30952,21.62611],[72.23629,21.45635],[72.10742,21.30175],[72.11327,21.19869],[71.8233,21.08046],[71.67685,20.99558],[71.5099,20.94405],[71.43668,20.86827],[71.32244,20.84705],[71.20529,20.79551],[71.05005,20.73186],[71.00026,20.74095],[70.97682,20.70154],[70.92117,20.74095],[70.82745,20.68942],[70.44668,20.84705],[70.23872,20.99255],[70.09227,21.11381],[69.98097,21.22597],[69.70857,21.53517],[69.37174,21.82921],[69.39517,21.88984],[69.35123,21.8383],[69.2165,21.95653],[68.96753,22.23238],[68.93824,22.3112],[69.00561,22.43851],[69.16378,22.34757],[69.17842,22.21419],[69.33952,22.3112],[69.49182,22.33545],[69.54162,22.37789],[69.6207,22.37182],[69.7525,22.41729],[69.86381,22.46276],[69.97511,22.54158],[70.12449,22.5537],[70.22407,22.6598],[70.21821,22.7174],[70.29144,22.7659],[70.39981,22.90534],[70.4496,22.84472],[70.49647,22.93262],[70.56091,23.02963],[70.68978,23.11754],[70.71907,23.19029],[70.50526,23.17816],[70.42617,23.21757],[70.31194,23.21454],[70.16549,23.066],[70.08055,22.9205],[69.92532,22.89625],[69.77008,22.82653],[69.64706,22.79621],[69.4186,22.81137],[69.13156,22.87503],[68.63363,23.16907],[68.53111,23.28123],[68.54869,23.35702],[68.39931,23.42067],[68.41688,23.48736],[68.32608,23.49646],[68.31144,23.5783],[68.14156,23.60256],[68.10055,23.67834],[68.17378,23.69653],[68.20893,23.87538],[68.3378,23.96632],[68.75372,23.97238],[68.76543,24.29674],[68.84745,24.23914],[68.94703,24.3028],[69.00268,24.22398],[69.09348,24.27249],[69.19307,24.23611],[69.31316,24.28158],[69.49182,24.26642],[69.59434,24.29371],[69.732,24.16942],[70.0249,24.16942],[70.10984,24.29371],[70.57262,24.42102],[70.57262,24.25127],[70.66928,24.21792],[70.80694,24.22095],[70.87431,24.29371],[70.98561,24.36646],[71.05005,24.35736],[71.10277,24.43618],[70.99733,24.44527],[70.98561,24.59684],[71.11156,24.67566],[70.93582,24.93939],[70.88895,25.14855],[70.75129,25.2789],[70.66635,25.39712],[70.67514,25.67601],[70.60777,25.71541],[70.53162,25.68207],[70.3881,25.67298],[70.26801,25.71238],[70.09813,25.93974],[70.08348,26.08221],[70.13913,26.15496],[70.17428,26.25197],[70.186,26.37322],[70.17428,26.55207],[70.05712,26.60057],[69.88724,26.57935],[69.79058,26.59754],[69.72029,26.65514],[69.5094,26.74305],[69.48304,26.80367],[69.51233,27.00981],[69.58555,27.18563],[69.86381,27.40388],[69.9341,27.49786],[70.0249,27.56151],[70.13327,27.80705],[70.227,27.90103],[70.37052,28.01319],[70.50818,28.03744],[70.58727,28.01016],[70.67807,27.92225],[70.68392,27.82827],[70.75715,27.72218],[70.90653,27.71005],[71.20529,27.83737],[71.38102,27.87374],[71.66807,27.87981],[71.87602,27.95559],[71.88188,27.91315],[71.92875,28.12232],[71.99611,28.20719],[72.13085,28.31329],[72.207,28.39514],[72.30073,28.66796],[72.40324,28.78315],[72.66099,28.89228],[72.73129,28.94685],[72.94511,29.02869],[73.00369,29.15298],[73.08277,29.23483],[73.28194,29.57131],[73.3991,29.9472],[73.59534,30.01995],[73.80623,30.06845],[73.96733,30.19274],[73.96147,30.27155],[73.87946,30.35946],[73.9644,30.42312],[73.9644,30.48375],[74.21629,30.68988],[74.36567,30.89298],[74.59706,31.03849],[74.70836,31.07183],[74.69079,31.12943],[74.51212,31.13246],[74.55312,31.36587],[74.65271,31.45681],[74.6117,31.49925],[74.50333,31.73873],[74.55898,31.75692],[74.5707,31.83877],[74.66736,31.92364],[74.80502,31.96305],[74.91339,32.0449],[75.01298,32.0358],[75.12135,32.08127],[75.17407,32.06612],[75.3791,32.18434],[75.38203,32.26922],[75.34102,32.345],[75.20629,32.41776],[75.1067,32.46019],[74.94561,32.44807],[74.88996,32.52082],[74.86946,32.48748],[74.682,32.49354],[74.63807,32.61176],[74.65857,32.78758],[74.51505,32.74514],[74.44768,32.79061],[74.38324,32.75727],[74.17821,32.88155],[74.06105,32.90884],[73.95854,32.98765],[73.82966,33.00887],[73.68907,33.08769],[73.62756,33.09072],[73.65685,33.20894],[73.56312,33.34232],[73.6217,33.5727],[73.5602,33.62121],[73.59827,33.71215]],[[71.3781,24.62716],[71.2873,24.61503],[71.31366,24.64838],[71.34881,24.6605],[71.35759,24.63019],[71.3781,24.62716]],[[71.60949,24.67566],[71.47768,24.67869],[71.5304,24.68475],[71.53919,24.67869],[71.55091,24.67869],[71.57434,24.68475],[71.5802,24.67869],[71.60656,24.67566],[71.60949,24.67566]],[[72.68443,24.46346],[72.5204,24.49984],[72.4999,24.41799],[72.35345,24.5635],[72.33588,24.63322],[72.166,24.62109],[72.05762,24.71203],[71.91996,24.67263],[71.79108,24.67566],[71.65635,24.63928],[71.70907,24.6605],[71.7325,24.6605],[71.77058,24.66959],[71.79108,24.67869],[71.79108,24.67566],[71.86431,24.67566],[71.8731,24.68172],[71.9141,24.67263],[71.91996,24.67263],[71.99318,24.69385],[71.99611,24.69385],[72.05762,24.71203],[72.08398,24.70597],[72.08691,24.68778],[72.14256,24.64231],[72.15135,24.64231],[72.16307,24.62412],[72.166,24.62109],[72.19528,24.62412],[72.23043,24.63928],[72.25094,24.62716],[72.25972,24.62716],[72.27144,24.63625],[72.28608,24.63019],[72.33588,24.63322],[72.34759,24.62716],[72.34173,24.612],[72.35345,24.5635],[72.40324,24.515],[72.41496,24.52106],[72.44132,24.515],[72.43253,24.48468],[72.4999,24.41799],[72.49404,24.46043],[72.50576,24.4574],[72.5204,24.49681],[72.5204,24.49984],[72.53505,24.50287],[72.53798,24.51803],[72.56434,24.49074],[72.6815,24.46346],[72.68443,24.46346]],[[72.95975,24.3604],[72.72836,24.36646],[72.81623,24.36343],[72.85431,24.37252],[72.87481,24.36343],[72.95975,24.3604]]]}}